TIROS N                 
1 11060U 78096A   24116.95187287  .00000625  00000+0  32063-3 0  9998
2 11060  98.5373 159.2846 0010229 353.4925   6.6116 14.18783851567807
NOAA 6                  
1 11416U 79057A   24116.93941982  .00001262  00000+0  46350-3 0  9991
2 11416  98.6328 138.2185 0011059  59.1742 301.0529 14.34454339338760
NOAA 7                  
1 12553U 81059A   24116.74759717  .00000244  00000+0  14251-3 0  9995
2 12553  98.8976 176.0108 0011128 349.5042  10.5899 14.17510847213880
NOAA 8                  
1 13923U 83022A   24116.98832660  .00000730  00000+0  30455-3 0  9998
2 13923  98.7305 116.8594 0015558  29.7641 330.4423 14.29211170139571
NOAA 9                  
1 15427U 84123A   24116.90531144  .00000625  00000+0  33641-3 0  9990
2 15427  99.1179 113.0634 0015579  47.0355  12.4834 14.16563370 32885
NOAA 10                 
1 16969U 86073A   24116.95747236  .00000689  00000+0  29187-3 0  9994
2 16969  98.6391 103.3886 0013089 122.0366 296.1742 14.28584751957691
NOAA 11                 
1 19531U 88089A   24116.91005031  .00000369  00000+0  20984-3 0  9998
2 19531  98.5141  81.7932 0011708  30.4117 329.7734 14.15517803836795
NOAA 12                 
1 21263U 91032A   24116.94349961  .00000505  00000+0  22794-3 0  9994
2 21263  98.5567 109.2437 0014250 150.3383 209.8608 14.26287113713433
NOAA 13                 
1 22739U 93050A   24116.89418251  .00000569  00000+0  32644-3 0  9993
2 22739  98.6019  76.3990 0008974 196.8881 163.1995 14.13186574583102
NOAA 14                 
1 23455U 94089A   24116.95398926  .00000298  00000+0  17674-3 0  9990
2 23455  98.4323 115.8577 0009693 165.7862 194.3587 14.14378190512616
NOAA 15                 
1 25338U 98030A   24117.12438179  .00000596  00000+0  26469-3 0  9990
2 25338  98.5733 145.3287 0011487 115.0561 245.1813 14.26549628350018
NOAA 16                 
1 26536U 00055A   24116.91649631  .00000366  00000+0  21591-3 0  9990
2 26536  98.5367 158.8913 0010953  31.7363 328.4469 14.13560314513191
NOAA 17                 
1 27453U 02032A   24116.91977755  .00000672  00000+0  30259-3 0  9998
2 27453  98.7592  67.5527 0012857  99.3046 260.9587 14.25545967135508
NOAA 18                 
1 28654U 05018A   24117.16976356  .00000553  00000+0  31887-3 0  9999
2 28654  98.8749 194.5654 0013938 206.5860 153.4599 14.13181841975916
NOAA 19                 
1 33591U 09005A   24117.18474547  .00000509  00000+0  29704-3 0  9998
2 33591  99.0515 172.4244 0014807  80.6156 279.6689 14.12981641784285
SUOMI NPP               
1 37849U 11061A   24117.16650768  .00000334  00000+0  17931-3 0  9997
2 37849  98.7194  55.9347 0001700  78.2007 281.9360 14.19555067647487
NOAA 20 (JPSS-1)        
1 43013U 17073A   24117.18470160  .00000290  00000+0  15796-3 0  9992
2 43013  98.7036  55.9846 0001623  49.4451 310.6867 14.19570519333521
NOAA 21 (JPSS-2)        
1 54234U 22150A   24116.86595942  .00000450  00000+0  23409-3 0  9999
2 54234  98.7489  55.3809 0000733  64.6713 295.4539 14.19555620 75552
ISS (ZARYA)             
1 25544U 98067A   24117.07962810  .00034364  00000+0  58775-3 0  9992
2 25544  51.6400 213.7758 0005117  97.2794 320.0022 15.50924459450465
CSS (TIANHE)            
1 48274U 21035A   24116.85621063  .00044887  00000+0  48881-3 0  9993
2 48274  41.4699  42.7465 0004487 271.4079 164.2731 15.62601929170903
ISS (NAUKA)             
1 49044U 21066A   24116.76570894  .00062894  00000+0  10654-2 0  9992
2 49044  51.6396 215.3361 0004566  95.7745   7.6568 15.50926567450223
FREGAT DEB              
1 49271U 11037PF  24116.24446583  .00025800  00000+0  64203-1 0  9995
2 49271  51.6588 139.5574 0955104   9.5474 352.2187 12.13713010128766
CSS (WENTIAN)           
1 53239U 22085A   24116.85621063  .00044887  00000+0  48881-3 0  9996
2 53239  41.4699  42.7465 0004487 271.4079 164.2731 15.62601929100239
CSS (MENGTIAN)          
1 54216U 22143A   24116.85621063  .00044887  00000+0  48881-3 0  9997
2 54216  41.4699  42.7465 0004487 271.4079 164.2731 15.62601929 84719
ISS DEB [SPX-28 IPA FSE]
1 57212U 98067VP  24116.52713394  .00302100  46017-4  84380-3 0  9999
2 57212  51.6227 183.7523 0006299 358.8439   1.2552 15.93132042 47755
SHENZHOU-17 (SZ-17)     
1 58146U 23164A   24116.85621063  .00044887  00000+0  48881-3 0  9997
2 58146  41.4699  42.7465 0004487 271.4079 164.2731 15.62601929 28500
ISS DEB                 
1 58229U 98067WC  24117.21946310  .00191764  00000+0  12024-2 0  9995
2 58229  51.6308 199.8184 0006537 351.2117   8.8768 15.75641867 27446
PROGRESS-MS 25          
1 58460U 23184A   24116.76570894  .00062894  00000+0  10654-2 0  9997
2 58460  51.6396 215.3361 0004566  95.7745   7.6568 15.50926567450225
BEAK                    
1 58612U 98067WD  24116.50936139  .00180239  00000+0  12911-2 0  9990
2 58612  51.6333 207.0966 0005461 352.7393   7.3526 15.72597381 20231
TIANZHOU-7              
1 58811U 24013A   24116.85621063  .00044887  00000+0  48881-3 0  9990
2 58811  41.4699  42.7465 0004487 271.4079 164.2731 15.62601929170800
CYGNUS NG-20            
1 58898U 24021A   24116.76570894  .00062894  00000+0  10654-2 0  9993
2 58898  51.6396 215.3361 0004566  95.7745   7.6568 15.50926567450220
PROGRESS-MS 26          
1 58961U 24029A   24116.76570894  .00062894  00000+0  10654-2 0  9992
2 58961  51.6396 215.3361 0004566  95.7745   7.6568 15.50926567450221
CREW DRAGON 8           
1 59097U 24042A   24116.76570894  .00062894  00000+0  10654-2 0  9998
2 59097  51.6396 215.3361 0004566  95.7745   7.6568 15.50926567450222
DRAGON CRS-30           
1 59287U 24054A   24116.55391636  .00034583  00000+0  59218-3 0  9998
2 59287  51.6382 216.3870 0004591  93.2555 266.8959 15.50890866450386
SOYUZ-MS 25             
1 59294U 24055A   24116.55391636  .00034583  00000+0  59218-3 0  9997
2 59294  51.6382 216.3870 0004591  93.2555 266.8959 15.50890866450384
MICROORBITER-1          
1 59483U 98067WF  24116.53826796  .00105406  00000+0  15942-2 0  9997
2 59483  51.6376 216.2822 0002404  80.5602 279.5660 15.53854502  2266
CURTIS                  
1 59507U 98067WG  24116.53938826  .00079753  00000+0  12333-2 0  9998
2 59507  51.6380 216.2904 0001477  96.4326 263.6833 15.53372794  2272
KASHIWA                 
1 59508U 98067WH  24116.53795638  .00120560  00000+0  18100-2 0  9992
2 59508  51.6374 216.2798 0002292  78.2259 281.8988 15.53989111  2276
1998-067WJ              
1 59559U 98067WJ  24116.61279953  .00086095  00000+0  13689-2 0  9995
2 59559  51.6380 216.0297 0004018  34.3552 325.7698 15.52562483  1158
1998-067WK              
1 59560U 98067WK  24116.50249913  .00053305  00000+0  88046-3 0  9996
2 59560  51.6398 216.6000 0002545  88.2660   2.4119 15.51712782  1052
1998-067WL              
1 59561U 98067WL  24116.64042079  .00046281  00000+0  76519-3 0  9993
2 59561  51.6390 215.9391 0002439  62.0341  79.5873 15.51746991  1127
1998-067WM              
1 59562U 98067WM  24116.61368226  .00093370  00000+0  14918-2 0  9991
2 59562  51.6379 216.0357 0002523  93.6791 266.4487 15.52394422  1130
1998-067WN              
1 59563U 98067WN  24116.80750036  .00080043  00000+0  12923-2 0  9994
2 59563  51.6383 215.0807 0002904  97.8118 262.3202 15.52173012  1160
SHENZHOU-18             
1 59591U 24078A   24116.85621063  .00044887  00000+0  48881-3 0  9997
2 59591  41.4699  42.7465 0004487 271.4079 164.2731 15.62601929170907
2024-078B               
1 59592U 24078B   24117.10981171 -.00352345  76244-5 -26722-3 0  9998
2 59592  41.4708  41.0305 0105529 129.7006 359.4868 16.02844540    92
2024-078C               
1 59593U 24078C   24117.16437429  .06643541  69424-5  71055-2 0  9992
2 59593  41.6118  40.5394 0251395 137.5527 224.6445 15.69435837   103
2024-078D               
1 59594U 24078D   24117.22659811  .07344630  68965-5  68422-2 0  9992
2 59594  41.5670  40.2545 0239513 141.7664 220.0441 15.73561697    80
2024-078E               
1 59595U 24078E   24117.22393836  .08551036  69730-5  81768-2 0  9995
2 59595  41.2991  40.8835 0205220 119.3358 241.7617 15.80558833   116
